$$SOE
2459580.500000000, A.D. 2022-Jan-01 00:00:00.0000, 4.009760990219808E+08, -1.918672195442653E+07, -2.638729029484044E+07,
2459587.500000000, A.D. 2022-Jan-08 00:00:00.0000, 4.004963760765046E+08, -8.765763815439742E+06, -2.610531720054450E+07,
2459594.500000000, A.D. 2022-Jan-15 00:00:00.0000, 3.997163058630305E+08, 1.661576312991984E+06, -2.580374626666351E+07,
2459601.500000000, A.D. 2022-Jan-22 00:00:00.0000, 3.986344689369636E+08, 1.208746864594448E+07, -2.548267539252228E+07,
2459608.500000000, A.D. 2022-Jan-29 00:00:00.0000, 3.972495963726630E+08, 2.250397986021516E+07, -2.514221462472838E+07,
2459615.500000000, A.D. 2022-Feb-05 00:00:00.0000, 3.955605729408126E+08, 3.290307158978765E+07, -2.478248637447900E+07,
2459622.500000000, A.D. 2022-Feb-12 00:00:00.0000, 3.935664427685158E+08, 4.327659800549158E+07, -2.440362593664681E+07,
2459629.500000000, A.D. 2022-Feb-19 00:00:00.0000, 3.912664161613848E+08, 5.361630486909483E+07, -2.400578199537242E+07,
2459636.500000000, A.D. 2022-Feb-26 00:00:00.0000, 3.886598762823249E+08, 6.391382936135629E+07, -2.358911705492032E+07,
2459643.500000000, A.D. 2022-Mar-05 00:00:00.0000, 3.857463858520500E+08, 7.416070009045981E+07, -2.315380786084634E+07,
2459650.500000000, A.D. 2022-Mar-12 00:00:00.0000, 3.825256940978451E+08, 8.434833723984765E+07, -2.270004583716883E+07,
2459657.500000000, A.D. 2022-Mar-19 00:00:00.0000, 3.789977440253032E+08, 9.446805290994407E+07, -2.222803754365181E+07,
2459664.500000000, A.D. 2022-Mar-26 00:00:00.0000, 3.751626800381866E+08, 1.045110516761133E+08, -2.173800515549758E+07,
2459671.500000000, A.D. 2022-Apr-02 00:00:00.0000, 3.710208559762307E+08, 1.144684313370863E+08, -2.123018697587915E+07,
2459678.500000000, A.D. 2022-Apr-09 00:00:00.0000, 3.665728438440036E+08, 1.243311838897857E+08, -2.070483800545368E+07,
2459685.500000000, A.D. 2022-Apr-16 00:00:00.0000, 3.618194435853184E+08, 1.340901974158788E+08, -2.016223054754802E+07,
2459692.500000000, A.D. 2022-Apr-23 00:00:00.0000, 3.567616926265963E+08, 1.437362599994574E+08, -1.960265464271880E+07,
2459699.500000000, A.D. 2022-Apr-30 00:00:00.0000, 3.514008733150800E+08, 1.532600634716535E+08, -1.902641834318590E+07,
2459706.500000000, A.D. 2022-May-07 00:00:00.0000, 3.457385213123375E+08, 1.626522050469740E+08, -1.843384826845360E+07,
2459713.500000000, A.D. 2022-May-14 00:00:00.0000, 3.397764363206403E+08, 1.719031899270533E+08, -1.782529031983021E+07,
2459720.500000000, A.D. 2022-May-21 00:00:00.0000, 3.335166930954115E+08, 1.810034356727940E+08, -1.720111030345421E+07,
2459727.500000000, A.D. 2022-May-28 00:00:00.0000, 3.269616522484901E+08, 1.899432774309556E+08, -1.656169449403666E+07,
2459734.500000000, A.D. 2022-Jun-04 00:00:00.0000, 3.201139711000103E+08, 1.987129737485204E+08, -1.590745018789719E+07,
2459741.500000000, A.D. 2022-Jun-11 00:00:00.0000, 3.129766147005004E+08, 2.073027130246515E+08, -1.523880625569737E+07,
2459748.500000000, A.D. 2022-Jun-18 00:00:00.0000, 3.055528670349130E+08, 2.157026206625711E+08, -1.455621369433463E+07,
2459755.500000000, A.D. 2022-Jun-25 00:00:00.0000, 2.978463424070484E+08, 2.239027669381757E+08, -1.386014618008149E+07,
2459762.500000000, A.D. 2022-Jul-02 00:00:00.0000, 2.898609971032010E+08, 2.318931755697049E+08, -1.315110063699092E+07,
2459769.500000000, A.D. 2022-Jul-09 00:00:00.0000, 2.816011416851935E+08, 2.396638332137215E+08, -1.242959783801754E+07,
2459776.500000000, A.D. 2022-Jul-16 00:00:00.0000, 2.730714538084217E+08, 2.472047010132927E+08, -1.169618294106394E+07,
2459783.500000000, A.D. 2022-Jul-23 00:00:00.0000, 2.642769893014797E+08, 2.545057283181754E+08, -1.095142574642834E+07,
2459790.500000000, A.D. 2022-Jul-30 00:00:00.0000, 2.552231915221483E+08, 2.615568652767273E+08, -1.019592095120855E+07,
2459797.500000000, A.D. 2022-Aug-06 00:00:00.0000, 2.459159025234776E+08, 2.683480750021690E+08, -9.430288672393158E+06,
2459804.500000000, A.D. 2022-Aug-13 00:00:00.0000, 2.363613751334323E+08, 2.748693481148955E+08, -8.655174932151005E+06,
2459811.500000000, A.D. 2022-Aug-20 00:00:00.0000, 2.265662842983015E+08, 2.811107192019378E+08, -7.871251995876983E+06,
2459818.500000000, A.D. 2022-Aug-27 00:00:00.0000, 2.165377376712715E+08, 2.870622845060757E+08, -7.079218621716648E+06,
2459825.500000000, A.D. 2022-Sep-03 00:00:00.0000, 2.062832855977305E+08, 2.927142207662212E+08, -6.279800246091247E+06,
2459832.500000000, A.D. 2022-Sep-10 00:00:00.0000, 1.958109304808984E+08, 2.980568052588503E+08, -5.473749103868350E+06,
2459839.500000000, A.D. 2022-Sep-17 00:00:00.0000, 1.851291354415105E+08, 3.030804370582208E+08, -4.661844278011262E+06,
2459846.500000000, A.D. 2022-Sep-24 00:00:00.0000, 1.742468322080432E+08, 3.077756594767067E+08, -3.844891680122808E+06,
2459853.500000000, A.D. 2022-Oct-01 00:00:00.0000, 1.631734283459989E+08, 3.121331836671323E+08, -3.023723977227747E+06,
2459860.500000000, A.D. 2022-Oct-08 00:00:00.0000, 1.519188140964175E+08, 3.161439139046298E+08, -2.199200451016396E+06,
2459867.500000000, A.D. 2022-Oct-15 00:00:00.0000, 1.404933677504704E+08, 3.197989757279727E+08, -1.372206597919568E+06,
2459874.500000000, A.D. 2022-Oct-22 00:00:00.0000, 1.289079572251448E+08, 3.230897452169179E+08, -5.436533986504823E+05,
2459881.500000000, A.D. 2022-Oct-29 00:00:00.0000, 1.171739401760434E+08, 3.260078767690264E+08, 2.855233112529963E+05,
2459888.500000000, A.D. 2022-Nov-05 00:00:00.0000, 1.053031645924357E+08, 3.285453320633117E+08, 1.114363409354985E+06,
2459895.500000000, A.D. 2022-Nov-12 00:00:00.0000, 9.330796775138982E+07, 3.306944113963088E+08, 1.941883284364611E+06,
2459902.500000000, A.D. 2022-Nov-19 00:00:00.0000, 8.120117264824571E+07, 3.324477863366185E+08, 2.767076860479504E+06,
2459909.500000000, A.D. 2022-Nov-26 00:00:00.0000, 6.899608200485376E+07, 3.337985331837742E+08, 3.588916799191326E+06,
2459916.500000000, A.D. 2022-Dec-03 00:00:00.0000, 5.670646986575805E+07, 3.347401670821707E+08, 4.406355869347885E+06,
2459923.500000000, A.D. 2022-Dec-10 00:00:00.0000, 4.434657067848563E+07, 3.352666766479315E+08, 5.218328488908201E+06,
2459930.500000000, A.D. 2022-Dec-17 00:00:00.0000, 3.193106574139969E+07, 3.353725588986728E+08, 6.023752439010277E+06,
2459937.500000000, A.D. 2022-Dec-24 00:00:00.0000, 1.947506699678482E+07, 3.350528542112437E+08, 6.821530738435075E+06,
2459944.500000000, A.D. 2022-Dec-31 00:00:00.0000, 6.994098406325849E+06, 3.343031811843187E+08, 7.610553656332403E+06,
2459951.500000000, A.D. 2023-Jan-07 00:00:00.0000, -5.495925073544098E+06, 3.331197721215103E+08, 8.389700930720806E+06,
2459958.500000000, A.D. 2023-Jan-14 00:00:00.0000, -1.797872296379409E+07, 3.314995093695652E+08, 9.157844411754176E+06,
2459965.500000000, A.D. 2023-Jan-21 00:00:00.0000, -3.043767988107143E+07, 3.294399590483736E+08, 9.913850926132441E+06,
2459972.500000000, A.D. 2023-Jan-28 00:00:00.0000, -4.285587766990590E+07, 3.269394016747782E+08, 1.065658500595038E+07,
2459979.500000000, A.D. 2023-Feb-04 00:00:00.0000, -5.521612925476423E+07, 3.239968624064039E+08, 1.138491174107486E+07,
2459986.500000000, A.D. 2023-Feb-11 00:00:00.0000, -6.750101596379830E+07, 3.206121403879487E+08, 1.209769989356247E+07,
2459993.500000000, A.D. 2023-Feb-18 00:00:00.0000, -7.969292831281579E+07, 3.167858360390128E+08, 1.279382520021543E+07,
2460000.500000000, A.D. 2023-Feb-25 00:00:00.0000, -9.177410987607154E+07, 3.125193757827251E+08, 1.347217381096131E+07,
2460007.500000000, A.D. 2023-Mar-04 00:00:00.0000, -1.037267039916244E+08, 3.078150338981053E+08, 1.413164583760658E+07,
2460014.500000000, A.D. 2023-Mar-11 00:00:00.0000, -1.155328030819701E+08, 3.026759511685934E+08, 1.477115899030171E+07,
2460021.500000000, A.D. 2023-Mar-18 00:00:00.0000, -1.271745003110494E+08, 2.971061499627059E+08, 1.538965227098054E+07,
2460028.500000000, A.D. 2023-Mar-25 00:00:00.0000, -1.386339431010663E+08, 2.911105454044027E+08, 1.598608967675088E+07,
2460035.500000000, A.D. 2023-Apr-01 00:00:00.0000, -1.498933877702627E+08, 2.846949527561620E+08, 1.655946387990354E+07,
2460042.500000000, A.D. 2023-Apr-08 00:00:00.0000, -1.609352555535234E+08, 2.778660920002401E+08, 1.710880001255712E+07,
2460049.500000000, A.D. 2023-Apr-15 00:00:00.0000, -1.717421919491429E+08, 2.706315883083103E+08, 1.763315964924169E+07,
2460056.500000000, A.D. 2023-Apr-22 00:00:00.0000, -1.822971271483017E+08, 2.629999651682475E+08, 1.813164453983065E+07,
2460063.500000000, A.D. 2023-Apr-29 00:00:00.0000, -1.925833343680453E+08, 2.549806322733082E+08, 1.860339999417393E+07,
2460070.500000000, A.D. 2023-May-06 00:00:00.0000, -2.025844874038378E+08, 2.465838698810810E+08, 1.904761819440275E+07,
2460077.500000000, A.D. 2023-May-13 00:00:00.0000, -2.122847179130736E+08, 2.378208087428653E+08, 1.946354142106381E+07,
2460084.500000000, A.D. 2023-May-20 00:00:00.0000, -2.216686717148151E+08, 2.287034051601679E+08, 1.985046510179330E+07,
2460091.500000000, A.D. 2023-May-27 00:00:00.0000, -2.307215634278233E+08, 2.192444112400983E+08, 2.020774063349406E+07,
2460098.500000000, A.D. 2023-Jun-03 00:00:00.0000, -2.394292289110708E+08, 2.094573405291779E+08, 2.053477794737642E+07,
2460105.500000000, A.D. 2023-Jun-10 00:00:00.0000, -2.477781750214264E+08, 1.993564292178917E+08, 2.083104778832811E+07,
2460112.500000000, A.D. 2023-Jun-17 00:00:00.0000, -2.557556261631608E+08, 1.889565931147947E+08, 2.109608367322777E+07,
2460119.500000000, A.D. 2023-Jun-24 00:00:00.0000, -2.633495669049040E+08, 1.782733807555243E+08, 2.132948348444668E+07,
2460126.500000000, A.D. 2023-Jul-01 00:00:00.0000, -2.705487800449343E+08, 1.673229238308403E+08, 2.153091072770000E+07,
2460133.500000000, A.D. 2023-Jul-08 00:00:00.0000, -2.773428814798604E+08, 1.561218861533231E+08, 2.170009566361462E+07,
2460140.500000000, A.D. 2023-Jul-15 00:00:00.0000, -2.837223528876485E+08, 1.446874087706349E+08, 2.183683619178858E+07,
2460147.500000000, A.D. 2023-Jul-22 00:00:00.0000, -2.896785684811352E+08, 1.330370506585400E+08, 2.194099807689055E+07,
$$EOE